const data = [
"1 33757U 93036E   21274.61603208  .00000020  00000+0  17231-4 0  9997",
"2 33757  74.0355 240.9719 0016158 270.1890 207.7427 14.32058506660466",
"1 33758U 93036F   21274.87864865  .00000688  00000+0  22977-3 0  9996",
"2 33758  74.0347 185.9950 0022702 266.0282 160.9832 14.39215260661813"
]

export { data };
